CCSDS_OMM_VERS = 2.0
CREATION_DATE  = 
ORIGINATOR     = 

OBJECT_NAME    = SL-14 R/B
OBJECT_ID      = 1986-046B
CENTER_NAME    = EARTH
REF_FRAME      = TEME
TIME_SYSTEM    = UTC
MEAN_ELEMENT_THEORY = SGP/SGP4

EPOCH          = 2025-12-24T20:08:32.653248
MEAN_MOTION    = 14.85497265
ECCENTRICITY   = .00245044
INCLINATION    = 82.4817
RA_OF_ASC_NODE = 150.8871
ARG_OF_PERICENTER = 114.0550
MEAN_ANOMALY   = 246.3234

EPHEMERIS_TYPE = 0
CLASSIFICATION_TYPE = U
NORAD_CAT_ID   = 16792
ELEMENT_SET_NO = 999
REV_AT_EPOCH   = 11529
BSTAR          = .61097756E-4
MEAN_MOTION_DOT = .555E-5
MEAN_MOTION_DDOT = 0

CCSDS_OMM_VERS = 2.0
CREATION_DATE  = 
ORIGINATOR     = 

OBJECT_NAME    = SL-14 R/B
OBJECT_ID      = 1986-055B
CENTER_NAME    = EARTH
REF_FRAME      = TEME
TIME_SYSTEM    = UTC
MEAN_ELEMENT_THEORY = SGP/SGP4

EPOCH          = 2025-12-25T01:11:02.207904
MEAN_MOTION    = 14.85542099
ECCENTRICITY   = .00180079
INCLINATION    = 82.5194
RA_OF_ASC_NODE = 196.8057
ARG_OF_PERICENTER = 215.6456
MEAN_ANOMALY   = 259.8644

EPHEMERIS_TYPE = 0
CLASSIFICATION_TYPE = U
NORAD_CAT_ID   = 16882
ELEMENT_SET_NO = 999
REV_AT_EPOCH   = 10828
BSTAR          = .53484343E-4
MEAN_MOTION_DOT = .487E-5
MEAN_MOTION_DDOT = 0

CCSDS_OMM_VERS = 2.0
CREATION_DATE  = 
ORIGINATOR     = 

OBJECT_NAME    = AJISAI (EGS)
OBJECT_ID      = 1986-061A
CENTER_NAME    = EARTH
REF_FRAME      = TEME
TIME_SYSTEM    = UTC
MEAN_ELEMENT_THEORY = SGP/SGP4

EPOCH          = 2025-12-25T06:51:40.159872
MEAN_MOTION    = 12.44514437
ECCENTRICITY   = .00113164
INCLINATION    = 50.0112
RA_OF_ASC_NODE = 322.1389
ARG_OF_PERICENTER = 97.3829
MEAN_ANOMALY   = 38.9436

EPHEMERIS_TYPE = 0
CLASSIFICATION_TYPE = U
NORAD_CAT_ID   = 16908
ELEMENT_SET_NO = 999
REV_AT_EPOCH   = 45873
BSTAR          = .1115397E-3
MEAN_MOTION_DOT = -.82E-6
MEAN_MOTION_DDOT = 0

CCSDS_OMM_VERS = 2.0
CREATION_DATE  = 
ORIGINATOR     = 

OBJECT_NAME    = COSMOS 1812
OBJECT_ID      = 1987-003A
CENTER_NAME    = EARTH
REF_FRAME      = TEME
TIME_SYSTEM    = UTC
MEAN_ELEMENT_THEORY = SGP/SGP4

EPOCH          = 2025-12-25T05:35:17.795904
MEAN_MOTION    = 15.78092843
ECCENTRICITY   = .00063241
INCLINATION    = 82.4872
RA_OF_ASC_NODE = 278.4691
ARG_OF_PERICENTER = 69.1658
MEAN_ANOMALY   = 291.0285

EPHEMERIS_TYPE = 0
CLASSIFICATION_TYPE = U
NORAD_CAT_ID   = 17295
ELEMENT_SET_NO = 999
REV_AT_EPOCH   = 13262
BSTAR          = .66981054E-3
MEAN_MOTION_DOT = .11511E-2
MEAN_MOTION_DDOT = 0

CCSDS_OMM_VERS = 2.0
CREATION_DATE  = 
ORIGINATOR     = 

OBJECT_NAME    = SL-14 R/B
OBJECT_ID      = 1987-024B
CENTER_NAME    = EARTH
REF_FRAME      = TEME
TIME_SYSTEM    = UTC
MEAN_ELEMENT_THEORY = SGP/SGP4

EPOCH          = 2025-12-24T23:12:42.284448
MEAN_MOTION    = 14.86036427
ECCENTRICITY   = .00191204
INCLINATION    = 82.5278
RA_OF_ASC_NODE = 162.9677
ARG_OF_PERICENTER = 144.4774
MEAN_ANOMALY   = 215.7720

EPHEMERIS_TYPE = 0
CLASSIFICATION_TYPE = U
NORAD_CAT_ID   = 17567
ELEMENT_SET_NO = 999
REV_AT_EPOCH   = 7703
BSTAR          = .63167953E-4
MEAN_MOTION_DOT = .579E-5
MEAN_MOTION_DDOT = 0

CCSDS_OMM_VERS = 2.0
CREATION_DATE  = 
ORIGINATOR     = 

OBJECT_NAME    = COSMOS 1833
OBJECT_ID      = 1987-027A
CENTER_NAME    = EARTH
REF_FRAME      = TEME
TIME_SYSTEM    = UTC
MEAN_ELEMENT_THEORY = SGP/SGP4

EPOCH          = 2025-12-24T18:03:14.595264
MEAN_MOTION    = 14.13027852
ECCENTRICITY   = .00230606
INCLINATION    = 70.9160
RA_OF_ASC_NODE = 123.5251
ARG_OF_PERICENTER = 314.9441
MEAN_ANOMALY   = 44.9809

EPHEMERIS_TYPE = 0
CLASSIFICATION_TYPE = U
NORAD_CAT_ID   = 17589
ELEMENT_SET_NO = 999
REV_AT_EPOCH   = 99972
BSTAR          = .17762691E-3
MEAN_MOTION_DOT = .284E-5
MEAN_MOTION_DDOT = 0

CCSDS_OMM_VERS = 2.0
CREATION_DATE  = 
ORIGINATOR     = 

OBJECT_NAME    = SL-16 R/B
OBJECT_ID      = 1987-027B
CENTER_NAME    = EARTH
REF_FRAME      = TEME
TIME_SYSTEM    = UTC
MEAN_ELEMENT_THEORY = SGP/SGP4

EPOCH          = 2025-12-25T07:06:15.303744
MEAN_MOTION    = 14.17156582
ECCENTRICITY   = .00072166
INCLINATION    = 71.0038
RA_OF_ASC_NODE = 73.2605
ARG_OF_PERICENTER = 246.6075
MEAN_ANOMALY   = 113.4290

EPHEMERIS_TYPE = 0
CLASSIFICATION_TYPE = U
NORAD_CAT_ID   = 17590
ELEMENT_SET_NO = 999
REV_AT_EPOCH   = 480
BSTAR          = -.8589523E-5
MEAN_MOTION_DOT = -.65E-6
MEAN_MOTION_DDOT = 0

CCSDS_OMM_VERS = 2.0
CREATION_DATE  = 
ORIGINATOR     = 

OBJECT_NAME    = SL-14 R/B
OBJECT_ID      = 1987-038B
CENTER_NAME    = EARTH
REF_FRAME      = TEME
TIME_SYSTEM    = UTC
MEAN_ELEMENT_THEORY = SGP/SGP4

EPOCH          = 2025-12-24T23:47:07.308384
MEAN_MOTION    = 14.85272215
ECCENTRICITY   = .00206085
INCLINATION    = 82.5010
RA_OF_ASC_NODE = 7.1605
ARG_OF_PERICENTER = 54.4396
MEAN_ANOMALY   = 305.8737

EPHEMERIS_TYPE = 0
CLASSIFICATION_TYPE = U
NORAD_CAT_ID   = 17912
ELEMENT_SET_NO = 999
REV_AT_EPOCH   = 6814
BSTAR          = .55314026E-4
MEAN_MOTION_DOT = .501E-5
MEAN_MOTION_DDOT = 0

CCSDS_OMM_VERS = 2.0
CREATION_DATE  = 
ORIGINATOR     = 

OBJECT_NAME    = COSMOS 1844
OBJECT_ID      = 1987-041A
CENTER_NAME    = EARTH
REF_FRAME      = TEME
TIME_SYSTEM    = UTC
MEAN_ELEMENT_THEORY = SGP/SGP4

EPOCH          = 2025-12-25T00:11:30.795648
MEAN_MOTION    = 14.14531331
ECCENTRICITY   = .00295908
INCLINATION    = 70.8967
RA_OF_ASC_NODE = 191.6949
ARG_OF_PERICENTER = 137.6859
MEAN_ANOMALY   = 222.6553

EPHEMERIS_TYPE = 0
CLASSIFICATION_TYPE = U
NORAD_CAT_ID   = 17973
ELEMENT_SET_NO = 999
REV_AT_EPOCH   = 99302
BSTAR          = .19900593E-3
MEAN_MOTION_DOT = .335E-5
MEAN_MOTION_DDOT = 0

CCSDS_OMM_VERS = 2.0
CREATION_DATE  = 
ORIGINATOR     = 

OBJECT_NAME    = SL-14 R/B
OBJECT_ID      = 1987-055B
CENTER_NAME    = EARTH
REF_FRAME      = TEME
TIME_SYSTEM    = UTC
MEAN_ELEMENT_THEORY = SGP/SGP4

EPOCH          = 2025-12-25T04:23:18.696192
MEAN_MOTION    = 14.85533431
ECCENTRICITY   = .00191769
INCLINATION    = 82.4991
RA_OF_ASC_NODE = 59.2615
ARG_OF_PERICENTER = 258.9895
MEAN_ANOMALY   = 100.9164

EPHEMERIS_TYPE = 0
CLASSIFICATION_TYPE = U
NORAD_CAT_ID   = 18153
ELEMENT_SET_NO = 999
REV_AT_EPOCH   = 5887
BSTAR          = .56034668E-4
MEAN_MOTION_DOT = .509E-5
MEAN_MOTION_DDOT = 0

CCSDS_OMM_VERS = 2.0
CREATION_DATE  = 
ORIGINATOR     = 

OBJECT_NAME    = COSMOS 1867
OBJECT_ID      = 1987-060A
CENTER_NAME    = EARTH
REF_FRAME      = TEME
TIME_SYSTEM    = UTC
MEAN_ELEMENT_THEORY = SGP/SGP4

EPOCH          = 2025-12-24T18:12:49.862016
MEAN_MOTION    = 14.31487908
ECCENTRICITY   = .00136712
INCLINATION    = 65.0090
RA_OF_ASC_NODE = 156.5437
ARG_OF_PERICENTER = 272.2694
MEAN_ANOMALY   = 87.6825

EPHEMERIS_TYPE = 0
CLASSIFICATION_TYPE = U
NORAD_CAT_ID   = 18187
ELEMENT_SET_NO = 999
REV_AT_EPOCH   = 921
BSTAR          = .21733826E-4
MEAN_MOTION_DOT = -.42E-6
MEAN_MOTION_DDOT = 0

CCSDS_OMM_VERS = 2.0
CREATION_DATE  = 
ORIGINATOR     = 

OBJECT_NAME    = SL-14 R/B
OBJECT_ID      = 1988-001B
CENTER_NAME    = EARTH
REF_FRAME      = TEME
TIME_SYSTEM    = UTC
MEAN_ELEMENT_THEORY = SGP/SGP4

EPOCH          = 2025-12-25T04:09:32.461632
MEAN_MOTION    = 14.85436295
ECCENTRICITY   = .00193836
INCLINATION    = 82.5134
RA_OF_ASC_NODE = 265.4536
ARG_OF_PERICENTER = 122.0248
MEAN_ANOMALY   = 238.2854

EPHEMERIS_TYPE = 0
CLASSIFICATION_TYPE = U
NORAD_CAT_ID   = 18749
ELEMENT_SET_NO = 999
REV_AT_EPOCH   = 3096
BSTAR          = .55899716E-4
MEAN_MOTION_DOT = .508E-5
MEAN_MOTION_DDOT = 0

